start=new Date('2022-01-19T00:00:00.000Z').valueOf();
sats=[{"RA_OF_ASC_NODE":"288.7081","LAUNCH_DATE":"2020-01-07","ECCENTRICITY":"0.00017570","FILE":"3276875","NORAD_CAT_ID":"44927","CLASSIFICATION_TYPE":"U","SITE":"AFETR","GP_ID":"194152991","MEAN_ELEMENT_THEORY":"SGP4","COUNTRY_CODE":"US","SEMIMAJOR_AXIS":"6925.385","OBJECT_ID":"2020-001P","ELEMENT_SET_NO":"999","BSTAR":"0.00004317200000","PERIAPSIS":"546.033","TLE_LINE2":"2 44927  53.0546 288.7081 0001757  66.7939 293.3235 15.06388098112149","RCS_SIZE":"LARGE","TIME_SYSTEM":"UTC","MEAN_MOTION_DDOT":"0.0000000000000","CENTER_NAME":"EARTH","REF_FRAME":"TEME","TLE_LINE1":"1 44927U 20001P   22018.92320855  .00000361  00000-0  43172-4 0  9997","ARG_OF_PERICENTER":"66.7939","PERIOD":"95.593","APOAPSIS":"548.467","INCLINATION":"53.0546","MEAN_MOTION_DOT":"0.00000361","REV_AT_EPOCH":"11214","EPOCH":"2022-01-18T22:09:25.218720","MEAN_ANOMALY":"293.3235","DECAY_DATE":null,"MEAN_MOTION":"15.06388098","EPHEMERIS_TYPE":"0","OBJECT_NAME":"STARLINK-1114","OBJECT_TYPE":"PAYLOAD"},{"TLE_LINE1":"1 44928U 20001Q   22018.91953799 -.00000329  00000-0 -32155-5 0  9992","RCS_SIZE":"LARGE","MEAN_MOTION_DDOT":"0.0000000000000","CENTER_NAME":"EARTH","TIME_SYSTEM":"UTC","REF_FRAME":"TEME","EPHEMERIS_TYPE":"0","MEAN_MOTION":"15.06371976","OBJECT_NAME":"STARLINK-1119","OBJECT_TYPE":"PAYLOAD","DECAY_DATE":null,"MEAN_ANOMALY":"291.9129","REV_AT_EPOCH":"11214","EPOCH":"2022-01-18T22:04:08.082336","ARG_OF_PERICENTER":"68.2037","PERIOD":"95.594","APOAPSIS":"548.451","INCLINATION":"53.0538","MEAN_MOTION_DOT":"-0.00000329","NORAD_CAT_ID":"44928","CLASSIFICATION_TYPE":"U","FILE":"3276875","RA_OF_ASC_NODE":"288.7407","LAUNCH_DATE":"2020-01-07","ECCENTRICITY":"0.00016630","BSTAR":"-0.00000321550000","PERIAPSIS":"546.148","TLE_LINE2":"2 44928  53.0538 288.7407 0001663  68.2037 291.9129 15.06371976112148","OBJECT_ID":"2020-001Q","ELEMENT_SET_NO":"999","SEMIMAJOR_AXIS":"6925.434","GP_ID":"194153726","SITE":"AFETR","MEAN_ELEMENT_THEORY":"SGP4","COUNTRY_CODE":"US"},{"LAUNCH_DATE":"2020-01-07","ECCENTRICITY":"0.00016240","RA_OF_ASC_NODE":"288.7895","FILE":"3276875","CLASSIFICATION_TYPE":"U","NORAD_CAT_ID":"44929","COUNTRY_CODE":"US","MEAN_ELEMENT_THEORY":"SGP4","GP_ID":"194152496","SITE":"AFETR","SEMIMAJOR_AXIS":"6925.419","ELEMENT_SET_NO":"999","OBJECT_ID":"2020-001R","TLE_LINE2":"2 44929  53.0536 288.7895 0001624  63.7524 296.3632 15.06377089112134","PERIAPSIS":"546.159","BSTAR":"0.00002095100000","REF_FRAME":"TEME","TIME_SYSTEM":"UTC","MEAN_MOTION_DDOT":"0.0000000000000","CENTER_NAME":"EARTH","RCS_SIZE":"LARGE","TLE_LINE1":"1 44929U 20001R   22018.90478826  .00000030  00000-0  20951-4 0  9992","MEAN_MOTION_DOT":"0.00000030","INCLINATION":"53.0536","APOAPSIS":"548.408","PERIOD":"95.594","ARG_OF_PERICENTER":"63.7524","EPOCH":"2022-01-18T21:42:53.705664","REV_AT_EPOCH":"11213","DECAY_DATE":null,"MEAN_ANOMALY":"296.3632","OBJECT_TYPE":"PAYLOAD","OBJECT_NAME":"STARLINK-1121","EPHEMERIS_TYPE":"0","MEAN_MOTION":"15.06377089"},{"FILE":"3276794","NORAD_CAT_ID":"44930","CLASSIFICATION_TYPE":"U","RA_OF_ASC_NODE":"290.7336","LAUNCH_DATE":"2020-01-07","ECCENTRICITY":"0.00016550","OBJECT_ID":"2020-001S","ELEMENT_SET_NO":"999","BSTAR":"0.00008150800000","PERIAPSIS":"546.110","TLE_LINE2":"2 44930  53.0533 290.7336 0001655  64.0148 296.1011 15.06385947112070","SITE":"AFETR","GP_ID":"194132214","MEAN_ELEMENT_THEORY":"SGP4","COUNTRY_CODE":"US","SEMIMAJOR_AXIS":"6925.392","TLE_LINE1":"1 44930U 20001S   22018.47351984  .00000932  00000-0  81508-4 0  9997","RCS_SIZE":"LARGE","TIME_SYSTEM":"UTC","MEAN_MOTION_DDOT":"0.0000000000000","CENTER_NAME":"EARTH","REF_FRAME":"TEME","MEAN_ANOMALY":"296.1011","DECAY_DATE":null,"EPHEMERIS_TYPE":"0","MEAN_MOTION":"15.06385947","OBJECT_NAME":"STARLINK-1123","OBJECT_TYPE":"PAYLOAD","ARG_OF_PERICENTER":"64.0148","PERIOD":"95.593","APOAPSIS":"548.403","INCLINATION":"53.0533","MEAN_MOTION_DOT":"0.00000932","REV_AT_EPOCH":"11207","EPOCH":"2022-01-18T11:21:52.114176"},{"BSTAR":"0.00079046000000","TLE_LINE2":"2 44931  53.0529 289.5729 0002904  87.9343 272.1980 15.09896970112836","PERIAPSIS":"534.509","OBJECT_ID":"2020-001T","ELEMENT_SET_NO":"999","SEMIMAJOR_AXIS":"6914.652","MEAN_ELEMENT_THEORY":"SGP4","GP_ID":"194122401","SITE":"AFETR","COUNTRY_CODE":"US","NORAD_CAT_ID":"44931","CLASSIFICATION_TYPE":"U","FILE":"3276616","RA_OF_ASC_NODE":"289.5729","LAUNCH_DATE":"2020-01-07","ECCENTRICITY":"0.00029040","OBJECT_NAME":"STARLINK-1128","MEAN_MOTION":"15.09896970","EPHEMERIS_TYPE":"0","OBJECT_TYPE":"PAYLOAD","MEAN_ANOMALY":"272.1980","DECAY_DATE":null,"REV_AT_EPOCH":"11283","EPOCH":"2022-01-18T11:23:51.248544","APOAPSIS":"538.525","PERIOD":"95.371","ARG_OF_PERICENTER":"87.9343","MEAN_MOTION_DOT":"0.00012684","INCLINATION":"53.0529","TLE_LINE1":"1 44931U 20001T   22018.47489871  .00012684  00000-0  79046-3 0  9995","RCS_SIZE":"LARGE","REF_FRAME":"TEME","CENTER_NAME":"EARTH","MEAN_MOTION_DDOT":"0.0000000000000","TIME_SYSTEM":"UTC"},{"MEAN_MOTION_DOT":"-0.00000497","INCLINATION":"53.0545","APOAPSIS":"548.328","PERIOD":"95.593","ARG_OF_PERICENTER":"61.0959","EPOCH":"2022-01-18T22:14:43.854144","REV_AT_EPOCH":"11337","MEAN_ANOMALY":"299.0185","DECAY_DATE":null,"OBJECT_TYPE":"PAYLOAD","OBJECT_NAME":"STARLINK-1130","MEAN_MOTION":"15.06386532","EPHEMERIS_TYPE":"0","REF_FRAME":"TEME","TIME_SYSTEM":"UTC","MEAN_MOTION_DDOT":"0.0000000000000","CENTER_NAME":"EARTH","RCS_SIZE":"LARGE","TLE_LINE1":"1 44932U 20001U   22018.92689646 -.00000497  00000-0 -14496-4 0  9998","COUNTRY_CODE":"US","MEAN_ELEMENT_THEORY":"SGP4","GP_ID":"194153226","SITE":"AFETR","SEMIMAJOR_AXIS":"6925.390","ELEMENT_SET_NO":"999","OBJECT_ID":"2020-001U","TLE_LINE2":"2 44932  53.0545 288.7036 0001549  61.0959 299.0185 15.06386532113377","PERIAPSIS":"546.182","BSTAR":"-0.00001449600000","LAUNCH_DATE":"2020-01-07","ECCENTRICITY":"0.00015490","RA_OF_ASC_NODE":"288.7036","FILE":"3276875","CLASSIFICATION_TYPE":"U","NORAD_CAT_ID":"44932"},{"MEAN_ANOMALY":"288.8036","DECAY_DATE":null,"OBJECT_NAME":"STARLINK-1144","MEAN_MOTION":"15.06384832","EPHEMERIS_TYPE":"0","OBJECT_TYPE":"PAYLOAD","APOAPSIS":"548.239","ARG_OF_PERICENTER":"71.3106","PERIOD":"95.593","MEAN_MOTION_DOT":"0.00001455","INCLINATION":"53.0548","REV_AT_EPOCH":"11342","EPOCH":"2022-01-18T21:16:20.684928","TLE_LINE1":"1 44933U 20001V   22018.88635052  .00001455  00000-0  11658-3 0  9995","RCS_SIZE":"LARGE","REF_FRAME":"TEME","CENTER_NAME":"EARTH","MEAN_MOTION_DDOT":"0.0000000000000","TIME_SYSTEM":"UTC","OBJECT_ID":"2020-001V","ELEMENT_SET_NO":"999","BSTAR":"0.00011658000000","TLE_LINE2":"2 44933  53.0548 288.8838 0001414  71.3106 288.8036 15.06384832113429","PERIAPSIS":"546.281","MEAN_ELEMENT_THEORY":"SGP4","GP_ID":"194151996","SITE":"AFETR","COUNTRY_CODE":"US","SEMIMAJOR_AXIS":"6925.395","FILE":"3276875","NORAD_CAT_ID":"44933","CLASSIFICATION_TYPE":"U","RA_OF_ASC_NODE":"288.8838","ECCENTRICITY":"0.00014140","LAUNCH_DATE":"2020-01-07"},{"TLE_LINE1":"1 44934U 20001W   22018.89926310 -.00000167  00000-0  76801-5 0  9990","REF_FRAME":"TEME","TIME_SYSTEM":"UTC","MEAN_MOTION_DDOT":"0.0000000000000","CENTER_NAME":"EARTH","RCS_SIZE":"LARGE","OBJECT_TYPE":"PAYLOAD","OBJECT_NAME":"STARLINK-1071","MEAN_MOTION":"15.06388695","EPHEMERIS_TYPE":"0","MEAN_ANOMALY":"280.0055","DECAY_DATE":null,"EPOCH":"2022-01-18T21:34:56.331840","REV_AT_EPOCH":"11241","MEAN_MOTION_DOT":"-0.00000167","INCLINATION":"53.0544","APOAPSIS":"548.493","PERIOD":"95.593","ARG_OF_PERICENTER":"80.1137","CLASSIFICATION_TYPE":"U","NORAD_CAT_ID":"44934","FILE":"3276875","ECCENTRICITY":"0.00017970","LAUNCH_DATE":"2020-01-07","RA_OF_ASC_NODE":"268.8238","TLE_LINE2":"2 44934  53.0544 268.8238 0001797  80.1137 280.0055 15.06388695112418","PERIAPSIS":"546.004","BSTAR":"0.00000768010000","ELEMENT_SET_NO":"999","OBJECT_ID":"2020-001W","SEMIMAJOR_AXIS":"6925.383","COUNTRY_CODE":"US","MEAN_ELEMENT_THEORY":"SGP4","SITE":"AFETR","GP_ID":"194152247"},{"BSTAR":"-0.00007078600000","TLE_LINE2":"2 44937  53.0542 268.9252 0001892  66.8586 293.2603 15.06387730112415","PERIAPSIS":"545.941","OBJECT_ID":"2020-001Z","ELEMENT_SET_NO":"999","SEMIMAJOR_AXIS":"6925.386","MEAN_ELEMENT_THEORY":"SGP4","SITE":"AFETR","GP_ID":"194152992","COUNTRY_CODE":"US","NORAD_CAT_ID":"44937","CLASSIFICATION_TYPE":"U","FILE":"3276875","RA_OF_ASC_NODE":"268.9252","LAUNCH_DATE":"2020-01-07","ECCENTRICITY":"0.00018920","OBJECT_NAME":"STARLINK-1079","EPHEMERIS_TYPE":"0","MEAN_MOTION":"15.06387730","OBJECT_TYPE":"PAYLOAD","DECAY_DATE":null,"MEAN_ANOMALY":"293.2603","REV_AT_EPOCH":"11241","EPOCH":"2022-01-18T21:03:04.793184","APOAPSIS":"548.561","PERIOD":"95.593","ARG_OF_PERICENTER":"66.8586","MEAN_MOTION_DOT":"-0.00001335","INCLINATION":"53.0542","TLE_LINE1":"1 44937U 20001Z   22018.87713881 -.00001335  00000-0 -70786-4 0  9992","RCS_SIZE":"LARGE","REF_FRAME":"TEME","TIME_SYSTEM":"UTC","MEAN_MOTION_DDOT":"0.0000000000000","CENTER_NAME":"EARTH"},{"SEMIMAJOR_AXIS":"6925.377","MEAN_ELEMENT_THEORY":"SGP4","GP_ID":"194153727","SITE":"AFETR","COUNTRY_CODE":"US","BSTAR":"-0.00004585500000","TLE_LINE2":"2 44938  53.0545 268.7728 0001918  66.9548 293.1643 15.06390647112417","PERIAPSIS":"545.914","OBJECT_ID":"2020-001AA","ELEMENT_SET_NO":"999","RA_OF_ASC_NODE":"268.7728","LAUNCH_DATE":"2020-01-07","ECCENTRICITY":"0.00019180","NORAD_CAT_ID":"44938","CLASSIFICATION_TYPE":"U","FILE":"3276875","REV_AT_EPOCH":"11241","EPOCH":"2022-01-18T21:50:50.684640","APOAPSIS":"548.571","ARG_OF_PERICENTER":"66.9548","PERIOD":"95.593","MEAN_MOTION_DOT":"-0.00000964","INCLINATION":"53.0545","OBJECT_NAME":"STARLINK-1082","EPHEMERIS_TYPE":"0","MEAN_MOTION":"15.06390647","OBJECT_TYPE":"PAYLOAD","DECAY_DATE":null,"MEAN_ANOMALY":"293.1643","RCS_SIZE":"LARGE","REF_FRAME":"TEME","CENTER_NAME":"EARTH","MEAN_MOTION_DDOT":"0.0000000000000","TIME_SYSTEM":"UTC","TLE_LINE1":"1 44938U 20001AA  22018.91030885 -.00000964  00000-0 -45855-4 0  9990"}];
